{
  "type": "FeatureCollection",
  "features": [
    {
      "type": "Feature",
      "properties": {
        "norad_id": 29914,
        "name": "FENGYUN 1C DEB",
        "group": "fengyun-1c-debris",
        "lat": 65.24209088897648,
        "lon": -5.82176561097911,
        "alt_km": 860.2339862747849,
        "timestamp": "2025-12-11T07:02:24.002445+00:00",
        "meta_object_name": "FENGYUN 1C DEB",
        "meta_object_id": "1999-025HL",
        "meta_epoch": "2025-12-10T08:33:11.270880",
        "meta_mean_motion": 14.03131576,
        "meta_eccentricity": 0.0036502,
        "meta_inclination": 98.845,
        "meta_ra_of_asc_node": 13.0008,
        "meta_arg_of_pericenter": 121.5729,
        "meta_mean_anomaly": 255.3907,
        "meta_ephemeris_type": 0,
        "meta_classification_type": "U",
        "meta_norad_cat_id": 29914,
        "meta_element_set_no": 999,
        "meta_rev_at_epoch": 96753,
        "meta_bstar": 0.00016451243,
        "meta_mean_motion_dot": 2.15e-06,
        "meta_mean_motion_ddot": 0,
        "tle_line1": "1 29914U 99025HL  25344.35638045  .00000215  00000+0  16451-3 0  9999",
        "tle_line2": "2 29914  98.8450  13.0008 0036502 121.5729 255.3907 14.03131576967538"
      },
      "geometry": {
        "type": "Point",
        "coordinates": [
          -5.82176561097911,
          65.24209088897648
        ]
      }
    },
    {
      "type": "Feature",
      "properties": {
        "norad_id": 29916,
        "name": "FENGYUN 1C DEB",
        "group": "fengyun-1c-debris",
        "lat": -49.27008571985279,
        "lon": 15.475290330960355,
        "alt_km": 915.0249245916884,
        "timestamp": "2025-12-11T07:02:24.002455+00:00",
        "meta_object_name": "FENGYUN 1C DEB",
        "meta_object_id": "1999-025HN",
        "meta_epoch": "2025-12-10T19:49:14.015424",
        "meta_mean_motion": 13.56980739,
        "meta_eccentricity": 0.02711904,
        "meta_inclination": 99.1949,
        "meta_ra_of_asc_node": 4.1955,
        "meta_arg_of_pericenter": 263.418,
        "meta_mean_anomaly": 281.7584,
        "meta_ephemeris_type": 0,
        "meta_classification_type": "U",
        "meta_norad_cat_id": 29916,
        "meta_element_set_no": 999,
        "meta_rev_at_epoch": 93426,
        "meta_bstar": 0.00095777362,
        "meta_mean_motion_dot": 8.21e-06,
        "meta_mean_motion_ddot": 0,
        "tle_line1": "1 29916U 99025HN  25344.82585666  .00000821  00000+0  95777-3 0  9994",
        "tle_line2": "2 29916  99.1949   4.1955 0271190 263.4180 281.7584 13.56980739934268"
      },
      "geometry": {
        "type": "Point",
        "coordinates": [
          15.475290330960355,
          -49.27008571985279
        ]
      }
    },
    {
      "type": "Feature",
      "properties": {
        "norad_id": 29917,
        "name": "FENGYUN 1C DEB",
        "group": "fengyun-1c-debris",
        "lat": -32.015119576521315,
        "lon": -147.35247936865792,
        "alt_km": 1158.6337992063563,
        "timestamp": "2025-12-11T07:02:24.002466+00:00",
        "meta_object_name": "FENGYUN 1C DEB",
        "meta_object_id": "1999-025HP",
        "meta_epoch": "2025-12-10T21:16:37.240896",
        "meta_mean_motion": 13.70404005,
        "meta_eccentricity": 0.02227465,
        "meta_inclination": 98.8765,
        "meta_ra_of_asc_node": 206.6646,
        "meta_arg_of_pericenter": 129.2763,
        "meta_mean_anomaly": 353.4245,
        "meta_ephemeris_type": 0,
        "meta_classification_type": "U",
        "meta_norad_cat_id": 29917,
        "meta_element_set_no": 999,
        "meta_rev_at_epoch": 94105,
        "meta_bstar": 0.001413073,
        "meta_mean_motion_dot": 1.451e-05,
        "meta_mean_motion_ddot": 0,
        "tle_line1": "1 29917U 99025HP  25344.88654214  .00001451  00000+0  14131-2 0  9991",
        "tle_line2": "2 29917  98.8765 206.6646 0222746 129.2763 353.4245 13.70404005941055"
      },
      "geometry": {
        "type": "Point",
        "coordinates": [
          -147.35247936865792,
          -32.015119576521315
        ]
      }
    },
    {
      "type": "Feature",
      "properties": {
        "norad_id": 29918,
        "name": "FENGYUN 1C DEB",
        "group": "fengyun-1c-debris",
        "lat": -7.952255910306455,
        "lon": -113.55138568630286,
        "alt_km": 789.964625540837,
        "timestamp": "2025-12-11T07:02:24.002476+00:00",
        "meta_object_name": "FENGYUN 1C DEB",
        "meta_object_id": "1999-025HQ",
        "meta_epoch": "2025-12-10T17:28:40.827648",
        "meta_mean_motion": 14.33573427,
        "meta_eccentricity": 0.00127989,
        "meta_inclination": 98.854,
        "meta_ra_of_asc_node": 67.1184,
        "meta_arg_of_pericenter": 322.8439,
        "meta_mean_anomaly": 190.526,
        "meta_ephemeris_type": 0,
        "meta_classification_type": "U",
        "meta_norad_cat_id": 29918,
        "meta_element_set_no": 999,
        "meta_rev_at_epoch": 97765,
        "meta_bstar": 0.0022883192,
        "meta_mean_motion_dot": 6.299e-05,
        "meta_mean_motion_ddot": 0,
        "tle_line1": "1 29918U 99025HQ  25344.72825032  .00006299  00000+0  22883-2 0  9991",
        "tle_line2": "2 29918  98.8540  67.1184 0012798 322.8439 190.5260 14.33573427977656"
      },
      "geometry": {
        "type": "Point",
        "coordinates": [
          -113.55138568630286,
          -7.952255910306455
        ]
      }
    },
    {
      "type": "Feature",
      "properties": {
        "norad_id": 29919,
        "name": "FENGYUN 1C DEB",
        "group": "fengyun-1c-debris",
        "lat": 29.355748166948516,
        "lon": 135.04487930486275,
        "alt_km": 868.8449735548429,
        "timestamp": "2025-12-11T07:02:24.002486+00:00",
        "meta_object_name": "FENGYUN 1C DEB",
        "meta_object_id": "1999-025HR",
        "meta_epoch": "2025-12-10T17:06:10.702368",
        "meta_mean_motion": 13.85121903,
        "meta_eccentricity": 0.01374642,
        "meta_inclination": 98.479,
        "meta_ra_of_asc_node": 139.3324,
        "meta_arg_of_pericenter": 349.3716,
        "meta_mean_anomaly": 25.3079,
        "meta_ephemeris_type": 0,
        "meta_classification_type": "U",
        "meta_norad_cat_id": 29919,
        "meta_element_set_no": 999,
        "meta_rev_at_epoch": 95507,
        "meta_bstar": 0.00024586227,
        "meta_mean_motion_dot": 2.61e-06,
        "meta_mean_motion_ddot": 0,
        "tle_line1": "1 29919U 99025HR  25344.71262387  .00000261  00000+0  24586-3 0  9995",
        "tle_line2": "2 29919  98.4790 139.3324 0137464 349.3716  25.3079 13.85121903955077"
      },
      "geometry": {
        "type": "Point",
        "coordinates": [
          135.04487930486275,
          29.355748166948516
        ]
      }
    },
    {
      "type": "Feature",
      "properties": {
        "norad_id": 29920,
        "name": "FENGYUN 1C DEB",
        "group": "fengyun-1c-debris",
        "lat": 12.678811787425968,
        "lon": 21.802910535161608,
        "alt_km": 923.9911482280731,
        "timestamp": "2025-12-11T07:02:24.002496+00:00",
        "meta_object_name": "FENGYUN 1C DEB",
        "meta_object_id": "1999-025HS",
        "meta_epoch": "2025-12-10T13:07:34.045248",
        "meta_mean_motion": 14.03644456,
        "meta_eccentricity": 0.0125447,
        "meta_inclination": 98.3915,
        "meta_ra_of_asc_node": 199.2107,
        "meta_arg_of_pericenter": 287.0603,
        "meta_mean_anomaly": 71.6855,
        "meta_ephemeris_type": 0,
        "meta_classification_type": "U",
        "meta_norad_cat_id": 29920,
        "meta_element_set_no": 999,
        "meta_rev_at_epoch": 96257,
        "meta_bstar": 0.0018726,
        "meta_mean_motion_dot": 3.114e-05,
        "meta_mean_motion_ddot": 0,
        "tle_line1": "1 29920U 99025HS  25344.54692182  .00003114  00000+0  18726-2 0  9996",
        "tle_line2": "2 29920  98.3915 199.2107 0125447 287.0603  71.6855 14.03644456962575"
      },
      "geometry": {
        "type": "Point",
        "coordinates": [
          21.802910535161608,
          12.678811787425968
        ]
      }
    },
    {
      "type": "Feature",
      "properties": {
        "norad_id": 29921,
        "name": "FENGYUN 1C DEB",
        "group": "fengyun-1c-debris",
        "lat": -12.497990709201922,
        "lon": -6.5835240200941145,
        "alt_km": 872.8776828118935,
        "timestamp": "2025-12-11T07:02:24.002507+00:00",
        "meta_object_name": "FENGYUN 1C DEB",
        "meta_object_id": "1999-025HT",
        "meta_epoch": "2025-12-10T12:55:22.587168",
        "meta_mean_motion": 14.06639278,
        "meta_eccentricity": 0.0046444,
        "meta_inclination": 98.7869,
        "meta_ra_of_asc_node": 350.7187,
        "meta_arg_of_pericenter": 75.7965,
        "meta_mean_anomaly": 51.6968,
        "meta_ephemeris_type": 0,
        "meta_classification_type": "U",
        "meta_norad_cat_id": 29921,
        "meta_element_set_no": 999,
        "meta_rev_at_epoch": 96845,
        "meta_bstar": 0.0006321,
        "meta_mean_motion_dot": 1.016e-05,
        "meta_mean_motion_ddot": 0,
        "tle_line1": "1 29921U 99025HT  25344.53845587  .00001016  00000+0  63210-3 0  9993",
        "tle_line2": "2 29921  98.7869 350.7187 0046444  75.7965  51.6968 14.06639278968457"
      },
      "geometry": {
        "type": "Point",
        "coordinates": [
          -6.5835240200941145,
          -12.497990709201922
        ]
      }
    }
  ]
}